{"type": "FeatureCollection", "features": [ {"type": "Feature", "properties": {"norad_id": 34077, "name": "IRIDIUM 33 DEB", "group": "iridium-33-debris", "lat": -29.970983686720533, "lon": -130.3114926819906, "alt_km": 689.5331892865233, "timestamp": "2025-12-21T14:40:48.303248+00:00", "meta": {"OBJECT_NAME": "IRIDIUM 33 DEB", "OBJECT_ID": "1997-051CL", "EPOCH": "2025-12-21T03:59:30.922368", "MEAN_MOTION": 14.64919607, "ECCENTRICITY": 0.00092333, "INCLINATION": 86.385, "RA_OF_ASC_NODE": 47.7954, "ARG_OF_PERICENTER": 12.3417, "MEAN_ANOMALY": 10.5487, "EPHEMERIS_TYPE": 0, "CLASSIFICATION_TYPE": "U", "NORAD_CAT_ID": 34077, "ELEMENT_SET_NO": 999, "REV_AT_EPOCH": 88456, "BSTAR": 0.00074353434, "MEAN_MOTION_DOT": 3.999e-05, "MEAN_MOTION_DDOT": 0}, "tle": {"line1": "1 34077U 97051CL  25355.16633012  .00003999  00000+0  74353-3 0  9999", "line2": "2 34077  86.3850  47.7954 0009233  12.3417  10.5487 14.64919607884567"}}, "geometry": {"type": "Point", "coordinates": [-130.3114926819906, -29.970983686720533]}}, {"type": "Feature", "properties": {"norad_id": 34079, "name": "IRIDIUM 33 DEB", "group": "iridium-33-debris", "lat": 79.25324090405456, "lon": 24.128778277983823, "alt_km": 611.0636951515917, "timestamp": "2025-12-21T14:40:48.303259+00:00", "meta": {"OBJECT_NAME": "IRIDIUM 33 DEB", "OBJECT_ID": "1997-051CN", "EPOCH": "2025-12-21T01:41:36.962880", "MEAN_MOTION": 14.83721839, "ECCENTRICITY": 0.0004623, "INCLINATION": 86.3769, "RA_OF_ASC_NODE": 4.8728, "ARG_OF_PERICENTER": 338.2576, "MEAN_ANOMALY": 93.2385, "EPHEMERIS_TYPE": 0, "CLASSIFICATION_TYPE": "U", "NORAD_CAT_ID": 34079, "ELEMENT_SET_NO": 999, "REV_AT_EPOCH": 89101, "BSTAR": 0.0010935828, "MEAN_MOTION_DOT": 9.07e-05, "MEAN_MOTION_DDOT": 0}, "tle": {"line1": "1 34079U 97051CN  25355.07056670  .00009070  00000+0  10936-2 0  9992", "line2": "2 34079  86.3769   4.8728 0004623 338.2576  93.2385 14.83721839891017"}}, "geometry": {"type": "Point", "coordinates": [24.128778277983823, 79.25324090405456]}}, {"type": "Feature", "properties": {"norad_id": 34088, "name": "IRIDIUM 33 DEB", "group": "iridium-33-debris", "lat": 64.1345532984078, "lon": 34.14123790363211, "alt_km": 585.877136924677, "timestamp": "2025-12-21T14:40:48.303270+00:00", "meta": {"OBJECT_NAME": "IRIDIUM 33 DEB", "OBJECT_ID": "1997-051CX", "EPOCH": "2025-12-21T01:45:27.066816", "MEAN_MOTION": 14.91723187, "ECCENTRICITY": 0.00066274, "INCLINATION": 86.3839, "RA_OF_ASC_NODE": 26.8939, "ARG_OF_PERICENTER": 150.3729, "MEAN_ANOMALY": 264.499, "EPHEMERIS_TYPE": 0, "CLASSIFICATION_TYPE": "U", "NORAD_CAT_ID": 34088, "ELEMENT_SET_NO": 999, "REV_AT_EPOCH": 88866, "BSTAR": 0.001445423, "MEAN_MOTION_DOT": 0.00014591, "MEAN_MOTION_DDOT": 0}, "tle": {"line1": "1 34088U 97051CX  25355.07322994  .00014591  00000+0  14454-2 0  9990", "line2": "2 34088  86.3839  26.8939 0006627 150.3729 264.4990 14.91723187888660"}}, "geometry": {"type": "Point", "coordinates": [34.14123790363211, 64.1345532984078]}}, {"type": "Feature", "properties": {"norad_id": 34091, "name": "IRIDIUM 33 DEB", "group": "iridium-33-debris", "lat": -50.56567534355867, "lon": 58.30732277583332, "alt_km": 612.7443585950605, "timestamp": "2025-12-21T14:40:48.303281+00:00", "meta": {"OBJECT_NAME": "IRIDIUM 33 DEB", "OBJECT_ID": "1997-051DA", "EPOCH": "2025-12-21T05:11:15.310752", "MEAN_MOTION": 14.82383169, "ECCENTRICITY": 0.00341378, "INCLINATION": 86.3414, "RA_OF_ASC_NODE": 62.9508, "ARG_OF_PERICENTER": 262.7173, "MEAN_ANOMALY": 97.0169, "EPHEMERIS_TYPE": 0, "CLASSIFICATION_TYPE": "U", "NORAD_CAT_ID": 34091, "ELEMENT_SET_NO": 999, "REV_AT_EPOCH": 87992, "BSTAR": 0.0035696675, "MEAN_MOTION_DOT": 0.00028976, "MEAN_MOTION_DDOT": 0}, "tle": {"line1": "1 34091U 97051DA  25355.21614943  .00028976  00000+0  35697-2 0  9992", "line2": "2 34091  86.3414  62.9508 0034137 262.7173  97.0169 14.82383169879923"}}, "geometry": {"type": "Point", "coordinates": [58.30732277583332, -50.56567534355867]}}, {"type": "Feature", "properties": {"norad_id": 34097, "name": "IRIDIUM 33 DEB", "group": "iridium-33-debris", "lat": 51.565065939044075, "lon": 172.68750846864626, "alt_km": 823.7843274415909, "timestamp": "2025-12-21T14:40:48.303291+00:00", "meta": {"OBJECT_NAME": "IRIDIUM 33 DEB", "OBJECT_ID": "1997-051DG", "EPOCH": "2025-12-21T00:41:41.456256", "MEAN_MOTION": 14.34837359, "ECCENTRICITY": 0.00816512, "INCLINATION": 86.2, "RA_OF_ASC_NODE": 357.7488, "ARG_OF_PERICENTER": 335.0527, "MEAN_ANOMALY": 24.6731, "EPHEMERIS_TYPE": 0, "CLASSIFICATION_TYPE": "U", "NORAD_CAT_ID": 34097, "ELEMENT_SET_NO": 999, "REV_AT_EPOCH": 87238, "BSTAR": 0.0010064048, "MEAN_MOTION_DOT": 2.983e-05, "MEAN_MOTION_DDOT": 0}, "tle": {"line1": "1 34097U 97051DG  25355.02895204  .00002983  00000+0  10064-2 0  9999", "line2": "2 34097  86.2000 357.7488 0081651 335.0527  24.6731 14.34837359872387"}}, "geometry": {"type": "Point", "coordinates": [172.68750846864626, 51.565065939044075]}}, {"type": "Feature", "properties": {"norad_id": 34145, "name": "IRIDIUM 33 DEB", "group": "iridium-33-debris", "lat": -82.76105722119982, "lon": -62.8653530142157, "alt_km": 792.3379664364347, "timestamp": "2025-12-21T14:40:48.303303+00:00", "meta": {"OBJECT_NAME": "IRIDIUM 33 DEB", "OBJECT_ID": "1997-051DY", "EPOCH": "2025-12-21T05:04:45.816960", "MEAN_MOTION": 14.42343688, "ECCENTRICITY": 0.00556995, "INCLINATION": 86.2119, "RA_OF_ASC_NODE": 328.7528, "ARG_OF_PERICENTER": 66.9145, "MEAN_ANOMALY": 293.7913, "EPHEMERIS_TYPE": 0, "CLASSIFICATION_TYPE": "U", "NORAD_CAT_ID": 34145, "ELEMENT_SET_NO": 999, "REV_AT_EPOCH": 87760, "BSTAR": 0.00087697846, "MEAN_MOTION_DOT": 2.971e-05, "MEAN_MOTION_DDOT": 0}, "tle": {"line1": "1 34145U 97051DY  25355.21164140  .00002971  00000+0  87698-3 0  9997", "line2": "2 34145  86.2119 328.7528 0055699  66.9145 293.7913 14.42343688877601"}}, "geometry": {"type": "Point", "coordinates": [-62.8653530142157, -82.76105722119982]}}, {"type": "Feature", "properties": {"norad_id": 34146, "name": "IRIDIUM 33 DEB", "group": "iridium-33-debris", "lat": 50.365508986495996, "lon": 161.37941283062838, "alt_km": 715.1106211656597, "timestamp": "2025-12-21T14:40:48.303313+00:00", "meta": {"OBJECT_NAME": "IRIDIUM 33 DEB", "OBJECT_ID": "1997-051DZ", "EPOCH": "2025-12-20T10:36:37.304352", "MEAN_MOTION": 14.49095208, "ECCENTRICITY": 0.00262607, "INCLINATION": 86.283, "RA_OF_ASC_NODE": 346.3974, "ARG_OF_PERICENTER": 194.7947, "MEAN_ANOMALY": 317.4256, "EPHEMERIS_TYPE": 0, "CLASSIFICATION_TYPE": "U", "NORAD_CAT_ID": 34146, "ELEMENT_SET_NO": 999, "REV_AT_EPOCH": 88218, "BSTAR": 0.00059944717, "MEAN_MOTION_DOT": 2.307e-05, "MEAN_MOTION_DDOT": 0}, "tle": {"line1": "1 34146U 97051DZ  25354.44209843  .00002307  00000+0  59945-3 0  9999", "line2": "2 34146  86.2830 346.3974 0026260 194.7947 317.4256 14.49095208882187"}}, "geometry": {"type": "Point", "coordinates": [161.37941283062838, 50.365508986495996]}}, {"type": "Feature", "properties": {"norad_id": 34159, "name": "IRIDIUM 33 DEB", "group": "iridium-33-debris", "lat": -47.113153820363436, "lon": -131.60081780799615, "alt_km": 754.0803936426219, "timestamp": "2025-12-21T14:40:48.303324+00:00", "meta": {"OBJECT_NAME": "IRIDIUM 33 DEB", "OBJECT_ID": "1997-051EN", "EPOCH": "2025-12-21T03:36:30.706560", "MEAN_MOTION": 14.38512066, "ECCENTRICITY": 0.00260619, "INCLINATION": 86.3499, "RA_OF_ASC_NODE": 44.6551, "ARG_OF_PERICENTER": 258.1061, "MEAN_ANOMALY": 101.7214, "EPHEMERIS_TYPE": 0, "CLASSIFICATION_TYPE": "U", "NORAD_CAT_ID": 34159, "ELEMENT_SET_NO": 999, "REV_AT_EPOCH": 88080, "BSTAR": 0.00026666703, "MEAN_MOTION_DOT": 8.37e-06, "MEAN_MOTION_DDOT": 0}, "tle": {"line1": "1 34159U 97051EN  25355.15035540  .00000837  00000+0  26667-3 0  9994", "line2": "2 34159  86.3499  44.6551 0026061 258.1061 101.7214 14.38512066880802"}}, "geometry": {"type": "Point", "coordinates": [-131.60081780799615, -47.113153820363436]}}, {"type": "Feature", "properties": {"norad_id": 34350, "name": "IRIDIUM 33 DEB", "group": "iridium-33-debris", "lat": 63.77642188969826, "lon": 171.46448384678573, "alt_km": 718.0794151667069, "timestamp": "2025-12-21T14:40:48.303335+00:00", "meta": {"OBJECT_NAME": "IRIDIUM 33 DEB", "OBJECT_ID": "1997-051ES", "EPOCH": "2025-12-21T01:05:51.116928", "MEAN_MOTION": 14.4540434, "ECCENTRICITY": 0.00233834, "INCLINATION": 86.3272, "RA_OF_ASC_NODE": 359.2028, "ARG_OF_PERICENTER": 109.7302, "MEAN_ANOMALY": 303.2035, "EPHEMERIS_TYPE": 0, "CLASSIFICATION_TYPE": "U", "NORAD_CAT_ID": 34350, "ELEMENT_SET_NO": 999, "REV_AT_EPOCH": 88413, "BSTAR": 0.00022992834, "MEAN_MOTION_DOT": 8.32e-06, "MEAN_MOTION_DDOT": 0}, "tle": {"line1": "1 34350U 97051ES  25355.04573052  .00000832  00000+0  22993-3 0  9993", "line2": "2 34350  86.3272 359.2028 0023383 109.7302 303.2035 14.45404340884134"}}, "geometry": {"type": "Point", "coordinates": [171.46448384678573, 63.77642188969826]}}, {"type": "Feature", "properties": {"norad_id": 34366, "name": "IRIDIUM 33 DEB", "group": "iridium-33-debris", "lat": 0.8122294462884584, "lon": 45.50633885019192, "alt_km": 721.0073432747213, "timestamp": "2025-12-21T14:40:48.303345+00:00", "meta": {"OBJECT_NAME": "IRIDIUM 33 DEB", "OBJECT_ID": "1997-051FJ", "EPOCH": "2025-12-21T03:14:39.196032", "MEAN_MOTION": 14.54116771, "ECCENTRICITY": 0.00229982, "INCLINATION": 86.369, "RA_OF_ASC_NODE": 45.662, "ARG_OF_PERICENTER": 113.5249, "MEAN_ANOMALY": 274.8967, "EPHEMERIS_TYPE": 0, "CLASSIFICATION_TYPE": "U", "NORAD_CAT_ID": 34366, "ELEMENT_SET_NO": 999, "REV_AT_EPOCH": 88304, "BSTAR": 0.00059167018, "MEAN_MOTION_DOT": 2.529e-05, "MEAN_MOTION_DDOT": 0}, "tle": {"line1": "1 34366U 97051FJ  25355.13517588  .00002529  00000+0  59167-3 0  9990", "line2": "2 34366  86.3690  45.6620 0022998 113.5249 274.8967 14.54116771883047"}}, "geometry": {"type": "Point", "coordinates": [45.50633885019192, 0.8122294462884584]}}]}